<?xml version="1.0" encoding="UTF-8"?>
<osm version="0.6" generator="Overpass API 0.7.62.4 2390de5a">
<note>The data included in this document is from www.openstreetmap.org. The data is made available under ODbL.</note>
<meta osm_base="2024-12-04T18:49:21Z"/>

  <bounds minlat="51.5168116" minlon="-0.1686788" maxlat="51.5170419" maxlon="-0.1677883"/>

  <node id="528125345" lat="51.5164952" lon="-0.1699345" version="3" timestamp="2019-10-29T04:51:04Z" changeset="76323736" uid="2055614" user="Mikhail1412"/>
  <node id="528125347" lat="51.5161955" lon="-0.1693647" version="3" timestamp="2019-10-29T04:51:04Z" changeset="76323736" uid="2055614" user="Mikhail1412"/>
  <node id="528125349" lat="51.5170156" lon="-0.1685459" version="3" timestamp="2019-10-29T04:51:04Z" changeset="76323736" uid="2055614" user="Mikhail1412"/>
  <node id="528125350" lat="51.5171088" lon="-0.1686747" version="3" timestamp="2019-10-29T04:51:04Z" changeset="76323736" uid="2055614" user="Mikhail1412"/>
  <node id="884121862" lat="51.5166375" lon="-0.1678137" version="3" timestamp="2012-10-11T18:06:39Z" changeset="13457665" uid="900987" user="Metanautics fixes"/>
  <node id="1510684263" lat="51.5168435" lon="-0.1679747" version="4" timestamp="2019-10-29T04:51:04Z" changeset="76323736" uid="2055614" user="Mikhail1412"/>
  <node id="1929007421" lat="51.5162766" lon="-0.1692132" version="2" timestamp="2019-10-29T04:51:04Z" changeset="76323736" uid="2055614" user="Mikhail1412"/>
  <node id="1929007422" lat="51.5163776" lon="-0.1697719" version="2" timestamp="2019-10-29T04:51:04Z" changeset="76323736" uid="2055614" user="Mikhail1412"/>
  <node id="1929007423" lat="51.5163799" lon="-0.1684883" version="3" timestamp="2019-11-09T16:51:39Z" changeset="76848928" uid="2055614" user="Mikhail1412"/>
  <node id="1929007425" lat="51.5164254" lon="-0.1696826" version="2" timestamp="2019-10-29T04:51:04Z" changeset="76323736" uid="2055614" user="Mikhail1412"/>
  <node id="1929007431" lat="51.5164958" lon="-0.1695164" version="2" timestamp="2019-10-29T04:51:04Z" changeset="76323736" uid="2055614" user="Mikhail1412"/>
  <node id="1929007445" lat="51.5169247" lon="-0.1679348" version="3" timestamp="2019-10-29T04:51:04Z" changeset="76323736" uid="2055614" user="Mikhail1412"/>
  <node id="1929007451" lat="51.5169022" lon="-0.1684738" version="1" timestamp="2012-09-23T14:47:09Z" changeset="13220997" uid="1611" user="Harry Wood">
    <tag k="FIXME" v="check building outline"/>
  </node>
  <node id="1929007455" lat="51.5170105" lon="-0.1677766" version="3" timestamp="2019-10-29T04:51:04Z" changeset="76323736" uid="2055614" user="Mikhail1412"/>
  <node id="1929007456" lat="51.5170091" lon="-0.1683522" version="2" timestamp="2018-12-20T08:47:25Z" changeset="65633953" uid="322039" user="MacLondon"/>
  <node id="1929007458" lat="51.5171181" lon="-0.1683789" version="3" timestamp="2019-10-29T04:51:04Z" changeset="76323736" uid="2055614" user="Mikhail1412"/>
  <node id="1929007459" lat="51.5171716" lon="-0.1682803" version="3" timestamp="2019-10-29T04:51:04Z" changeset="76323736" uid="2055614" user="Mikhail1412"/>
  <node id="1929007460" lat="51.5171032" lon="-0.1681846" version="3" timestamp="2019-10-29T04:51:04Z" changeset="76323736" uid="2055614" user="Mikhail1412"/>
  <node id="1929007461" lat="51.5172212" lon="-0.1685232" version="3" timestamp="2019-10-29T04:51:04Z" changeset="76323736" uid="2055614" user="Mikhail1412"/>
  <node id="1929007462" lat="51.5172323" lon="-0.1685027" version="3" timestamp="2019-10-29T04:51:04Z" changeset="76323736" uid="2055614" user="Mikhail1412"/>
  <node id="1929007463" lat="51.5172417" lon="-0.1685158" version="3" timestamp="2019-10-29T04:51:04Z" changeset="76323736" uid="2055614" user="Mikhail1412"/>
  <node id="1929007464" lat="51.5172652" lon="-0.1681331" version="3" timestamp="2019-10-29T04:51:04Z" changeset="76323736" uid="2055614" user="Mikhail1412"/>
  <node id="1929007466" lat="51.5174275" lon="-0.1678336" version="3" timestamp="2019-10-29T04:51:04Z" changeset="76323736" uid="2055614" user="Mikhail1412"/>
  <node id="1929007467" lat="51.5174372" lon="-0.1678472" version="3" timestamp="2019-10-29T04:51:04Z" changeset="76323736" uid="2055614" user="Mikhail1412"/>
  <node id="1929007468" lat="51.5174700" lon="-0.1677867" version="3" timestamp="2019-10-29T04:51:04Z" changeset="76323736" uid="2055614" user="Mikhail1412"/>
  <node id="1929007480" lat="51.5175648" lon="-0.1679192" version="3" timestamp="2019-10-29T04:51:04Z" changeset="76323736" uid="2055614" user="Mikhail1412"/>
  <node id="6149322043" lat="51.5170371" lon="-0.1683960" version="1" timestamp="2018-12-20T08:47:24Z" changeset="65633953" uid="322039" user="MacLondon"/>
  <node id="6149322047" lat="51.5169530" lon="-0.1685553" version="2" timestamp="2019-10-29T04:51:04Z" changeset="76323736" uid="2055614" user="Mikhail1412">
    <tag k="barrier" v="gate"/>
  </node>
  <node id="6149322048" lat="51.5171872" lon="-0.1680239" version="2" timestamp="2019-10-29T04:51:04Z" changeset="76323736" uid="2055614" user="Mikhail1412"/>
  <node id="6322311477" lat="51.5164599" lon="-0.1694667" version="2" timestamp="2019-10-29T04:51:04Z" changeset="76323736" uid="2055614" user="Mikhail1412"/>
  <node id="6322311479" lat="51.5163798" lon="-0.1696195" version="2" timestamp="2019-10-29T04:51:04Z" changeset="76323736" uid="2055614" user="Mikhail1412">
    <tag k="barrier" v="gate"/>
  </node>
  <node id="6926011655" lat="51.5165587" lon="-0.1697017" version="1" timestamp="2019-10-29T04:51:04Z" changeset="76323736" uid="2055614" user="Mikhail1412"/>
  <node id="6926011656" lat="51.5165938" lon="-0.1697504" version="1" timestamp="2019-10-29T04:51:04Z" changeset="76323736" uid="2055614" user="Mikhail1412"/>
  <node id="6926011663" lat="51.5167492" lon="-0.1689235" version="1" timestamp="2019-10-29T04:51:04Z" changeset="76323736" uid="2055614" user="Mikhail1412"/>
  <node id="6926011668" lat="51.5159786" lon="-0.1692140" version="2" timestamp="2019-11-09T16:51:39Z" changeset="76848928" uid="2055614" user="Mikhail1412"/>
  <node id="6926011669" lat="51.5163711" lon="-0.1684759" version="2" timestamp="2019-11-09T16:51:39Z" changeset="76848928" uid="2055614" user="Mikhail1412"/>
  <node id="6926011670" lat="51.5166267" lon="-0.1680042" version="1" timestamp="2019-10-29T04:51:04Z" changeset="76323736" uid="2055614" user="Mikhail1412"/>
  <node id="6926011671" lat="51.5166518" lon="-0.1679970" version="1" timestamp="2019-10-29T04:51:04Z" changeset="76323736" uid="2055614" user="Mikhail1412"/>
  <node id="6926011672" lat="51.5169648" lon="-0.1684728" version="1" timestamp="2019-10-29T04:51:04Z" changeset="76323736" uid="2055614" user="Mikhail1412"/>
  <node id="6926011673" lat="51.5169328" lon="-0.1685234" version="1" timestamp="2019-10-29T04:51:04Z" changeset="76323736" uid="2055614" user="Mikhail1412"/>
  <node id="6926011674" lat="51.5169841" lon="-0.1686047" version="1" timestamp="2019-10-29T04:51:04Z" changeset="76323736" uid="2055614" user="Mikhail1412"/>
  <node id="6926011682" lat="51.5172603" lon="-0.1685726" version="5" timestamp="2024-11-25T10:29:18Z" changeset="159566773" uid="2230609" user="Σεραφειμ"/>
  <node id="6926011683" lat="51.5177806" lon="-0.1676468" version="5" timestamp="2024-11-25T10:29:18Z" changeset="159566773" uid="2230609" user="Σεραφειμ"/>
  <node id="6926011684" lat="51.5167815" lon="-0.1660815" version="2" timestamp="2019-11-01T05:03:16Z" changeset="76474986" uid="2055614" user="Mikhail1412"/>
  <node id="6926075985" lat="51.5166144" lon="-0.1663620" version="1" timestamp="2019-10-29T04:51:04Z" changeset="76323736" uid="2055614" user="Mikhail1412"/>
  <node id="6926075986" lat="51.5167268" lon="-0.1665390" version="1" timestamp="2019-10-29T04:51:04Z" changeset="76323736" uid="2055614" user="Mikhail1412"/>
  <node id="6926075987" lat="51.5167136" lon="-0.1665726" version="1" timestamp="2019-10-29T04:51:04Z" changeset="76323736" uid="2055614" user="Mikhail1412"/>
  <node id="6926075988" lat="51.5167554" lon="-0.1666983" version="1" timestamp="2019-10-29T04:51:04Z" changeset="76323736" uid="2055614" user="Mikhail1412"/>
  <node id="6926075989" lat="51.5167873" lon="-0.1668221" version="1" timestamp="2019-10-29T04:51:04Z" changeset="76323736" uid="2055614" user="Mikhail1412"/>
  <node id="6926075990" lat="51.5168028" lon="-0.1669708" version="1" timestamp="2019-10-29T04:51:04Z" changeset="76323736" uid="2055614" user="Mikhail1412"/>
  <node id="6926075991" lat="51.5168193" lon="-0.1671584" version="1" timestamp="2019-10-29T04:51:04Z" changeset="76323736" uid="2055614" user="Mikhail1412"/>
  <node id="6926075992" lat="51.5168226" lon="-0.1673459" version="1" timestamp="2019-10-29T04:51:04Z" changeset="76323736" uid="2055614" user="Mikhail1412"/>
  <node id="6926075993" lat="51.5168116" lon="-0.1675760" version="1" timestamp="2019-10-29T04:51:04Z" changeset="76323736" uid="2055614" user="Mikhail1412"/>
  <node id="6926075994" lat="51.5169503" lon="-0.1677795" version="1" timestamp="2019-10-29T04:51:04Z" changeset="76323736" uid="2055614" user="Mikhail1412"/>
  <node id="6926075996" lat="51.5168162" lon="-0.1674782" version="1" timestamp="2019-10-29T04:51:04Z" changeset="76323736" uid="2055614" user="Mikhail1412"/>
  <node id="6926075999" lat="51.5170561" lon="-0.1681188" version="1" timestamp="2019-10-29T04:51:04Z" changeset="76323736" uid="2055614" user="Mikhail1412"/>
  <node id="6926076000" lat="51.5170054" lon="-0.1682118" version="1" timestamp="2019-10-29T04:51:04Z" changeset="76323736" uid="2055614" user="Mikhail1412"/>
  <node id="6926076001" lat="51.5169043" lon="-0.1680638" version="1" timestamp="2019-10-29T04:51:04Z" changeset="76323736" uid="2055614" user="Mikhail1412"/>
  <node id="6926076002" lat="51.5169520" lon="-0.1679730" version="1" timestamp="2019-10-29T04:51:04Z" changeset="76323736" uid="2055614" user="Mikhail1412"/>
  <node id="6959950102" lat="51.5166176" lon="-0.1664181" version="1" timestamp="2019-11-09T13:16:00Z" changeset="76844040" uid="2055614" user="Mikhail1412"/>
  <node id="6959950150" lat="51.5168817" lon="-0.1677863" version="1" timestamp="2019-11-09T13:16:00Z" changeset="76844040" uid="2055614" user="Mikhail1412"/>
  <node id="6959950151" lat="51.5168093" lon="-0.1679111" version="1" timestamp="2019-11-09T13:16:00Z" changeset="76844040" uid="2055614" user="Mikhail1412"/>
  <node id="6959950152" lat="51.5169180" lon="-0.1678399" version="1" timestamp="2019-11-09T13:16:00Z" changeset="76844040" uid="2055614" user="Mikhail1412"/>
  <node id="6959950153" lat="51.5168461" lon="-0.1679656" version="1" timestamp="2019-11-09T13:16:00Z" changeset="76844040" uid="2055614" user="Mikhail1412"/>
  <node id="6959950160" lat="51.5166298" lon="-0.1663991" version="1" timestamp="2019-11-09T13:16:00Z" changeset="76844040" uid="2055614" user="Mikhail1412"/>
  <node id="6959950161" lat="51.5166824" lon="-0.1664818" version="1" timestamp="2019-11-09T13:16:00Z" changeset="76844040" uid="2055614" user="Mikhail1412"/>
  <node id="6959950162" lat="51.5166688" lon="-0.1665045" version="1" timestamp="2019-11-09T13:16:00Z" changeset="76844040" uid="2055614" user="Mikhail1412"/>
  <node id="6959950163" lat="51.5166400" lon="-0.1676764" version="1" timestamp="2019-11-09T13:16:00Z" changeset="76844040" uid="2055614" user="Mikhail1412"/>
  <node id="6959950164" lat="51.5166620" lon="-0.1675019" version="1" timestamp="2019-11-09T13:16:00Z" changeset="76844040" uid="2055614" user="Mikhail1412"/>
  <node id="6959950165" lat="51.5166677" lon="-0.1673873" version="1" timestamp="2019-11-09T13:16:00Z" changeset="76844040" uid="2055614" user="Mikhail1412"/>
  <node id="6959950166" lat="51.5166649" lon="-0.1672455" version="1" timestamp="2019-11-09T13:16:00Z" changeset="76844040" uid="2055614" user="Mikhail1412"/>
  <node id="6959950167" lat="51.5166490" lon="-0.1670446" version="1" timestamp="2019-11-09T13:16:00Z" changeset="76844040" uid="2055614" user="Mikhail1412"/>
  <node id="6959950168" lat="51.5166241" lon="-0.1668873" version="1" timestamp="2019-11-09T13:16:00Z" changeset="76844040" uid="2055614" user="Mikhail1412"/>
  <node id="6959950169" lat="51.5165902" lon="-0.1667536" version="1" timestamp="2019-11-09T13:16:00Z" changeset="76844040" uid="2055614" user="Mikhail1412"/>
  <node id="6959950170" lat="51.5165506" lon="-0.1666473" version="1" timestamp="2019-11-09T13:16:00Z" changeset="76844040" uid="2055614" user="Mikhail1412"/>
  <node id="6959950171" lat="51.5165183" lon="-0.1665645" version="1" timestamp="2019-11-09T13:16:00Z" changeset="76844040" uid="2055614" user="Mikhail1412"/>
  <node id="6959950172" lat="51.5166285" lon="-0.1663818" version="1" timestamp="2019-11-09T13:16:00Z" changeset="76844040" uid="2055614" user="Mikhail1412"/>
  <node id="6959950173" lat="51.5168035" lon="-0.1669783" version="1" timestamp="2019-11-09T13:16:00Z" changeset="76844040" uid="2055614" user="Mikhail1412"/>
  <node id="6960310314" lat="51.5171657" lon="-0.1687525" version="3" timestamp="2024-11-25T10:29:18Z" changeset="159566773" uid="2230609" user="Σεραφειμ"/>
  <node id="6960310315" lat="51.5165047" lon="-0.1699494" version="2" timestamp="2024-11-25T10:29:18Z" changeset="159566773" uid="2230609" user="Σεραφειμ"/>
  <node id="10628323435" lat="51.5170703" lon="-0.1684439" version="1" timestamp="2023-02-09T03:32:44Z" changeset="132285458" uid="322039" user="MacLondon"/>
  <node id="11223256631" lat="51.5169302" lon="-0.1680284" version="3" timestamp="2023-09-29T20:59:34Z" changeset="141930566" uid="3560" user="Firefishy">
    <tag k="addr:city" v="London"/>
    <tag k="addr:housename" v="The Heron"/>
    <tag k="addr:postcode" v="W2 2DN"/>
    <tag k="addr:street" v="Norfolk Crescent"/>
    <tag k="amenity" v="restaurant"/>
    <tag k="check_date" v="2023-09-27"/>
    <tag k="cuisine" v="thai"/>
    <tag k="diet:vegetarian" v="yes"/>
    <tag k="fhrs:id" v="1247008"/>
    <tag k="level" v="-1"/>
    <tag k="name" v="Thai Zapp at The Heron Pub"/>
    <tag k="outdoor_seating" v="no"/>
    <tag k="payment:mastercard" v="yes"/>
    <tag k="payment:visa" v="yes"/>
    <tag k="source" v="survey"/>
    <tag k="source:addr" v="FHRS Open Data"/>
    <tag k="takeaway" v="yes"/>
    <tag k="toilets" v="yes"/>
    <tag k="toilets:wheelchair" v="no"/>
    <tag k="wheelchair" v="no"/>
  </node>
  <node id="11731601768" lat="51.5172466" lon="-0.1687485" version="1" timestamp="2024-03-14T20:17:10Z" changeset="148659706" uid="2111087" user="asturksever"/>
  <node id="12029649325" lat="51.5170364" lon="-0.1684633" version="1" timestamp="2024-07-02T17:39:58Z" changeset="153468482" uid="20828150" user="VLD316"/>
  <node id="12029649326" lat="51.5170068" lon="-0.1684188" version="1" timestamp="2024-07-02T17:39:58Z" changeset="153468482" uid="20828150" user="VLD316"/>
  <node id="12029649327" lat="51.5170170" lon="-0.1684341" version="1" timestamp="2024-07-02T17:39:58Z" changeset="153468482" uid="20828150" user="VLD316">
    <tag k="crossing" v="unmarked"/>
    <tag k="crossing:markings" v="no"/>
    <tag k="highway" v="crossing"/>
  </node>
  <node id="12029649328" lat="51.5166535" lon="-0.1679146" version="1" timestamp="2024-07-02T17:39:58Z" changeset="153468482" uid="20828150" user="VLD316"/>
  <node id="12339983017" lat="51.5170475" lon="-0.1682838" version="1" timestamp="2024-11-14T19:07:08Z" changeset="159142985" uid="1050248" user="geocruizer"/>
  <way id="42319456" version="6" timestamp="2022-07-19T17:25:31Z" changeset="123818168" uid="2969887" user="eastender">
    <nd ref="528125345"/>
    <nd ref="6926011656"/>
    <nd ref="6926011655"/>
    <nd ref="528125350"/>
    <nd ref="528125349"/>
    <nd ref="6926011674"/>
    <nd ref="1929007431"/>
    <nd ref="6322311477"/>
    <nd ref="1929007421"/>
    <nd ref="528125347"/>
    <nd ref="6322311479"/>
    <nd ref="1929007425"/>
    <nd ref="1929007422"/>
    <nd ref="528125345"/>
    <tag k="addr:city" v="London"/>
    <tag k="addr:postcode" v="W2 2RN;W2 2RW"/>
    <tag k="addr:street" v="Southwick Street"/>
    <tag k="building" v="residential"/>
    <tag k="building:flats" v="94"/>
    <tag k="building:levels" v="6"/>
    <tag k="name" v="The Quadrangle"/>
  </way>
  <way id="182543280" version="12" timestamp="2021-01-20T01:48:06Z" changeset="97799282" uid="322039" user="MacLondon">
    <nd ref="6149322043"/>
    <nd ref="1929007456"/>
    <nd ref="884121862"/>
    <tag k="highway" v="residential"/>
    <tag k="lit" v="yes"/>
    <tag k="maxspeed" v="20 mph"/>
    <tag k="maxspeed:type" v="GB:zone20"/>
    <tag k="name" v="Norfolk Crescent"/>
    <tag k="surface" v="asphalt"/>
  </way>
  <way id="182543287" version="4" timestamp="2024-11-14T19:07:08Z" changeset="159142985" uid="1050248" user="geocruizer">
    <nd ref="1929007456"/>
    <nd ref="12339983017"/>
    <nd ref="1929007460"/>
    <tag k="access" v="private"/>
    <tag k="highway" v="service"/>
  </way>
  <way id="182543288" version="5" timestamp="2019-10-29T04:51:04Z" changeset="76323736" uid="2055614" user="Mikhail1412">
    <nd ref="1929007480"/>
    <nd ref="1929007468"/>
    <nd ref="1929007467"/>
    <nd ref="1929007466"/>
    <nd ref="1929007464"/>
    <nd ref="6149322048"/>
    <nd ref="1929007455"/>
    <nd ref="1929007445"/>
    <nd ref="6926076002"/>
    <nd ref="6926075999"/>
    <nd ref="1929007460"/>
    <nd ref="1929007459"/>
    <nd ref="1929007458"/>
    <nd ref="1929007461"/>
    <nd ref="1929007462"/>
    <nd ref="1929007463"/>
    <nd ref="1929007480"/>
    <tag k="addr:housename" v="The Water Gardens"/>
    <tag k="addr:housenumber" v="301-396"/>
    <tag k="building" v="residential"/>
    <tag k="building:flats" v="96"/>
    <tag k="name" v="Water Gardens (301-396)"/>
  </way>
  <way id="656448355" version="5" timestamp="2024-07-02T17:39:58Z" changeset="153468482" uid="20828150" user="VLD316">
    <nd ref="6149322043"/>
    <nd ref="12029649327"/>
    <nd ref="6149322047"/>
    <nd ref="6926011663"/>
    <nd ref="6322311477"/>
    <tag k="access" v="private"/>
    <tag k="highway" v="service"/>
    <tag k="oneway" v="yes"/>
  </way>
  <way id="739710237" version="1" timestamp="2019-10-29T04:51:04Z" changeset="76323736" uid="2055614" user="Mikhail1412">
    <nd ref="1929007423"/>
    <nd ref="6926011669"/>
    <nd ref="6926011670"/>
    <nd ref="6926011671"/>
    <nd ref="6926011672"/>
    <nd ref="6926011673"/>
    <nd ref="6149322047"/>
    <nd ref="6926011674"/>
    <tag k="barrier" v="fence"/>
  </way>
  <way id="739710239" version="2" timestamp="2019-11-09T13:16:00Z" changeset="76844040" uid="2055614" user="Mikhail1412">
    <nd ref="1510684263"/>
    <nd ref="6926076001"/>
    <nd ref="6926076000"/>
    <nd ref="6926011682"/>
    <nd ref="6926011683"/>
    <nd ref="6926011684"/>
    <nd ref="6926075985"/>
    <nd ref="6926075986"/>
    <nd ref="6926075987"/>
    <nd ref="6926075988"/>
    <nd ref="6926075989"/>
    <nd ref="6926075990"/>
    <nd ref="6959950173"/>
    <nd ref="6926075991"/>
    <nd ref="6926075992"/>
    <nd ref="6926075996"/>
    <nd ref="6926075993"/>
    <nd ref="6926075994"/>
    <nd ref="6959950152"/>
    <nd ref="6959950153"/>
    <nd ref="1510684263"/>
    <tag k="landuse" v="residential"/>
    <tag k="name" v="Water Gardens"/>
    <tag k="residential" v="urban"/>
  </way>
  <way id="739710241" version="2" timestamp="2023-09-27T19:11:37Z" changeset="141834826" uid="3560" user="Firefishy">
    <nd ref="6926075999"/>
    <nd ref="6926076000"/>
    <nd ref="6926076001"/>
    <nd ref="6926076002"/>
    <nd ref="6926075999"/>
    <tag k="addr:street" v="Norfolk Crescent"/>
    <tag k="amenity" v="pub"/>
    <tag k="brewery" v="yes"/>
    <tag k="building" v="yes"/>
    <tag k="check_date" v="2023-09-27"/>
    <tag k="internet_access" v="wlan"/>
    <tag k="internet_access:fee" v="customers"/>
    <tag k="level" v="0"/>
    <tag k="name" v="The Heron"/>
    <tag k="outdoor_seating" v="yes"/>
    <tag k="payment:mastercard" v="yes"/>
    <tag k="payment:visa" v="yes"/>
    <tag k="phone" v="+44 20 7724 8463"/>
    <tag k="smoking" v="outside"/>
    <tag k="source" v="survey"/>
    <tag k="toilets" v="yes"/>
    <tag k="website" v="https://www.theheronpaddington.com/"/>
  </way>
  <way id="743628480" version="1" timestamp="2019-11-09T13:16:00Z" changeset="76844040" uid="2055614" user="Mikhail1412">
    <nd ref="6959950150"/>
    <nd ref="6959950152"/>
    <nd ref="6959950153"/>
    <nd ref="6959950151"/>
    <nd ref="6959950150"/>
    <tag k="addr:housenumber" v="1"/>
    <tag k="addr:street" v="Norfolk Crescent"/>
    <tag k="building" v="house"/>
    <tag k="building:levels" v="4"/>
  </way>
  <way id="743628481" version="1" timestamp="2019-11-09T13:16:00Z" changeset="76844040" uid="2055614" user="Mikhail1412">
    <nd ref="6959950102"/>
    <nd ref="6959950160"/>
    <nd ref="6959950161"/>
    <nd ref="6959950162"/>
    <nd ref="6926075987"/>
    <nd ref="6926075988"/>
    <nd ref="6926075989"/>
    <nd ref="6926075990"/>
    <nd ref="6959950173"/>
    <nd ref="6926075991"/>
    <nd ref="6926075992"/>
    <nd ref="6926075996"/>
    <nd ref="6926075993"/>
    <nd ref="6926075994"/>
    <nd ref="6959950152"/>
    <tag k="barrier" v="wall"/>
  </way>
  <way id="743628482" version="2" timestamp="2019-11-09T13:25:10Z" changeset="76844231" uid="2055614" user="Mikhail1412">
    <nd ref="1510684263"/>
    <nd ref="6959950163"/>
    <nd ref="6959950164"/>
    <nd ref="6959950165"/>
    <nd ref="6959950166"/>
    <nd ref="6959950167"/>
    <nd ref="6959950168"/>
    <nd ref="6959950169"/>
    <nd ref="6959950170"/>
    <nd ref="6959950171"/>
    <nd ref="6959950172"/>
    <nd ref="6926075986"/>
    <nd ref="6926075987"/>
    <nd ref="6926075988"/>
    <nd ref="6926075989"/>
    <nd ref="6959950173"/>
    <nd ref="6926075991"/>
    <nd ref="6926075992"/>
    <nd ref="6926075996"/>
    <nd ref="6926075993"/>
    <nd ref="6926075994"/>
    <nd ref="6959950153"/>
    <nd ref="1510684263"/>
    <tag k="landuse" v="residential"/>
  </way>
  <way id="743671317" version="1" timestamp="2019-11-09T16:51:39Z" changeset="76848928" uid="2055614" user="Mikhail1412">
    <nd ref="6926011668"/>
    <nd ref="1929007423"/>
    <nd ref="6926011669"/>
    <nd ref="6926011670"/>
    <nd ref="6926011671"/>
    <nd ref="6926011672"/>
    <nd ref="528125349"/>
    <nd ref="528125350"/>
    <nd ref="6960310314"/>
    <nd ref="6960310315"/>
    <nd ref="6926011668"/>
    <tag k="landuse" v="residential"/>
  </way>
  <way id="1140685355" version="1" timestamp="2023-02-09T03:32:44Z" changeset="132285458" uid="322039" user="MacLondon">
    <nd ref="10628323435"/>
    <nd ref="6149322043"/>
    <tag k="cycleway" v="opposite"/>
    <tag k="highway" v="residential"/>
    <tag k="lit" v="yes"/>
    <tag k="maxspeed" v="20 mph"/>
    <tag k="maxspeed:type" v="GB:zone20"/>
    <tag k="name" v="Norfolk Crescent"/>
    <tag k="oneway" v="yes"/>
    <tag k="oneway:bicycle" v="no"/>
    <tag k="surface" v="asphalt"/>
  </way>
  <way id="1298616932" version="1" timestamp="2024-07-02T17:39:58Z" changeset="153468482" uid="20828150" user="VLD316">
    <nd ref="11731601768"/>
    <nd ref="12029649325"/>
    <tag k="footway" v="sidewalk"/>
    <tag k="highway" v="footway"/>
  </way>
  <way id="1298616933" version="1" timestamp="2024-07-02T17:39:58Z" changeset="153468482" uid="20828150" user="VLD316">
    <nd ref="12029649325"/>
    <nd ref="12029649327"/>
    <nd ref="12029649326"/>
    <tag k="crossing" v="unmarked"/>
    <tag k="crossing:markings" v="no"/>
    <tag k="footway" v="crossing"/>
    <tag k="highway" v="footway"/>
  </way>
  <way id="1298616934" version="1" timestamp="2024-07-02T17:39:58Z" changeset="153468482" uid="20828150" user="VLD316">
    <nd ref="12029649326"/>
    <nd ref="12029649328"/>
    <tag k="footway" v="sidewalk"/>
    <tag k="highway" v="footway"/>
  </way>
  <relation id="9816827" version="23" timestamp="2024-10-11T15:20:59Z" changeset="157761870" uid="20828150" user="VLD316">
    <member type="node" ref="10731396262" role="guidepost"/>
    <member type="node" ref="10731405851" role="guidepost"/>
    <member type="node" ref="10731405849" role="guidepost"/>
    <member type="node" ref="10731405850" role="guidepost"/>
    <member type="node" ref="10731390935" role="guidepost"/>
    <member type="node" ref="10731405846" role="guidepost"/>
    <member type="node" ref="10731405847" role="guidepost"/>
    <member type="node" ref="10731405848" role="guidepost"/>
    <member type="node" ref="10628323434" role="guidepost"/>
    <member type="node" ref="10628099088" role="guidepost"/>
    <member type="node" ref="10628060084" role="guidepost"/>
    <member type="node" ref="10628119039" role="guidepost"/>
    <member type="node" ref="10628323432" role="guidepost"/>
    <member type="node" ref="10628323433" role="guidepost"/>
    <member type="node" ref="10656629609" role="guidepost"/>
    <member type="node" ref="10627859793" role="guidepost"/>
    <member type="node" ref="10628071776" role="guidepost"/>
    <member type="node" ref="10628113698" role="guidepost"/>
    <member type="node" ref="10628120066" role="guidepost"/>
    <member type="node" ref="10628069591" role="guidepost"/>
    <member type="node" ref="10628122523" role="guidepost"/>
    <member type="node" ref="10628255744" role="guidepost"/>
    <member type="node" ref="9313443749" role="guidepost"/>
    <member type="node" ref="10628305546" role="guidepost"/>
    <member type="node" ref="10628305543" role="guidepost"/>
    <member type="node" ref="10628305556" role="guidepost"/>
    <member type="way" ref="996623762" role=""/>
    <member type="way" ref="477205270" role=""/>
    <member type="way" ref="635459492" role=""/>
    <member type="way" ref="996623764" role=""/>
    <member type="way" ref="1096107188" role="forward"/>
    <member type="way" ref="264395976" role="forward"/>
    <member type="way" ref="1096107192" role="forward"/>
    <member type="way" ref="1096107189" role="forward"/>
    <member type="way" ref="1096107190" role="forward"/>
    <member type="way" ref="509117494" role=""/>
    <member type="way" ref="1033900162" role=""/>
    <member type="way" ref="1096120009" role=""/>
    <member type="way" ref="1033900164" role=""/>
    <member type="way" ref="1033900161" role=""/>
    <member type="way" ref="1033900165" role=""/>
    <member type="way" ref="1033911469" role=""/>
    <member type="way" ref="509117491" role=""/>
    <member type="way" ref="1033911468" role=""/>
    <member type="way" ref="1033900166" role=""/>
    <member type="way" ref="1033900167" role=""/>
    <member type="way" ref="1096120008" role=""/>
    <member type="way" ref="1033900168" role=""/>
    <member type="way" ref="509117492" role=""/>
    <member type="way" ref="1096119308" role=""/>
    <member type="way" ref="741275888" role=""/>
    <member type="way" ref="741275887" role=""/>
    <member type="way" ref="80138244" role=""/>
    <member type="way" ref="371349848" role=""/>
    <member type="way" ref="80138236" role=""/>
    <member type="way" ref="509116660" role=""/>
    <member type="way" ref="509116661" role=""/>
    <member type="way" ref="361989902" role=""/>
    <member type="way" ref="361989890" role=""/>
    <member type="way" ref="540049420" role=""/>
    <member type="way" ref="509120306" role=""/>
    <member type="way" ref="1096401672" role=""/>
    <member type="way" ref="540049428" role=""/>
    <member type="way" ref="1096401673" role=""/>
    <member type="way" ref="559602184" role=""/>
    <member type="way" ref="559602186" role=""/>
    <member type="way" ref="477205271" role=""/>
    <member type="way" ref="477205272" role=""/>
    <member type="way" ref="4641316" role=""/>
    <member type="way" ref="1153881730" role=""/>
    <member type="way" ref="477216029" role=""/>
    <member type="way" ref="509117899" role=""/>
    <member type="way" ref="509117900" role=""/>
    <member type="way" ref="1153881726" role=""/>
    <member type="way" ref="477216030" role=""/>
    <member type="way" ref="83467945" role=""/>
    <member type="way" ref="482136818" role=""/>
    <member type="way" ref="482136816" role=""/>
    <member type="way" ref="477206881" role=""/>
    <member type="way" ref="584944040" role=""/>
    <member type="way" ref="477206883" role=""/>
    <member type="way" ref="371336333" role=""/>
    <member type="way" ref="783523226" role=""/>
    <member type="way" ref="783541345" role=""/>
    <member type="way" ref="783541344" role=""/>
    <member type="way" ref="477207346" role=""/>
    <member type="way" ref="783918389" role=""/>
    <member type="way" ref="783918388" role=""/>
    <member type="way" ref="4981884" role=""/>
    <member type="way" ref="4981901" role=""/>
    <member type="way" ref="8363009" role=""/>
    <member type="way" ref="130448036" role="forward"/>
    <member type="way" ref="130448037" role="forward"/>
    <member type="way" ref="26645967" role=""/>
    <member type="way" ref="23591853" role=""/>
    <member type="way" ref="778389864" role=""/>
    <member type="way" ref="836352230" role=""/>
    <member type="way" ref="770787511" role=""/>
    <member type="way" ref="836352229" role=""/>
    <member type="way" ref="778898265" role=""/>
    <member type="way" ref="771245566" role=""/>
    <member type="way" ref="771245565" role=""/>
    <member type="way" ref="509349705" role=""/>
    <member type="way" ref="4779323" role=""/>
    <member type="way" ref="758341070" role=""/>
    <member type="way" ref="765853595" role=""/>
    <member type="way" ref="758341072" role=""/>
    <member type="way" ref="67253886" role=""/>
    <member type="way" ref="389727013" role="forward"/>
    <member type="way" ref="389727016" role="backward"/>
    <member type="way" ref="389727017" role="forward"/>
    <member type="way" ref="23592172" role=""/>
    <member type="way" ref="8143616" role=""/>
    <member type="way" ref="760516584" role=""/>
    <member type="way" ref="760516585" role=""/>
    <member type="way" ref="69409241" role=""/>
    <member type="way" ref="617001728" role=""/>
    <member type="way" ref="72454095" role="backward"/>
    <member type="way" ref="85848499" role="forward"/>
    <member type="way" ref="617001727" role="forward"/>
    <member type="way" ref="760701742" role=""/>
    <member type="way" ref="45758416" role=""/>
    <member type="way" ref="45758415" role=""/>
    <member type="way" ref="45758414" role=""/>
    <member type="way" ref="23608021" role=""/>
    <member type="way" ref="23607995" role=""/>
    <member type="way" ref="784632845" role="forward"/>
    <member type="way" ref="784632843" role="forward"/>
    <member type="way" ref="509349703" role=""/>
    <member type="way" ref="509349702" role="forward"/>
    <member type="way" ref="784632844" role="forward"/>
    <member type="way" ref="784632842" role=""/>
    <member type="way" ref="1067635386" role=""/>
    <member type="way" ref="4779895" role=""/>
    <member type="way" ref="1067635387" role=""/>
    <member type="way" ref="482348591" role=""/>
    <member type="way" ref="27415094" role=""/>
    <member type="way" ref="509349707" role=""/>
    <member type="way" ref="8152794" role=""/>
    <member type="way" ref="41698333" role=""/>
    <member type="way" ref="509349706" role=""/>
    <member type="way" ref="509349708" role=""/>
    <member type="way" ref="574644795" role=""/>
    <member type="way" ref="574644797" role=""/>
    <member type="way" ref="4779212" role=""/>
    <member type="way" ref="507427930" role=""/>
    <member type="way" ref="443234523" role=""/>
    <member type="way" ref="443228917" role="forward"/>
    <member type="way" ref="443228916" role="forward"/>
    <member type="way" ref="482348590" role="forward"/>
    <member type="way" ref="174627424" role="forward"/>
    <member type="way" ref="46102109" role="forward"/>
    <member type="way" ref="659187516" role="forward"/>
    <member type="way" ref="659187517" role="forward"/>
    <member type="way" ref="46102110" role="forward"/>
    <member type="way" ref="39343029" role="forward"/>
    <member type="way" ref="1212208586" role="forward"/>
    <member type="way" ref="1212208585" role="forward"/>
    <member type="way" ref="482352058" role="forward"/>
    <member type="way" ref="469268772" role="forward"/>
    <member type="way" ref="1212208584" role="forward"/>
    <member type="way" ref="443226483" role="forward"/>
    <member type="way" ref="46102053" role=""/>
    <member type="way" ref="632657504" role=""/>
    <member type="way" ref="632657500" role=""/>
    <member type="way" ref="632657501" role=""/>
    <member type="way" ref="632657503" role=""/>
    <member type="way" ref="41588190" role=""/>
    <member type="way" ref="66789463" role=""/>
    <member type="way" ref="632657502" role=""/>
    <member type="way" ref="1164953676" role=""/>
    <member type="way" ref="632657499" role=""/>
    <member type="way" ref="647570238" role=""/>
    <member type="way" ref="192837455" role=""/>
    <member type="way" ref="584351063" role=""/>
    <member type="way" ref="656448357" role="forward"/>
    <member type="way" ref="656448356" role="forward"/>
    <member type="way" ref="656448354" role=""/>
    <member type="way" ref="1140685355" role=""/>
    <member type="way" ref="182543280" role=""/>
    <member type="way" ref="389094266" role=""/>
    <member type="way" ref="482354685" role=""/>
    <member type="way" ref="4700854" role=""/>
    <member type="way" ref="661781022" role=""/>
    <member type="way" ref="616977746" role=""/>
    <member type="way" ref="1258948269" role=""/>
    <member type="way" ref="74851386" role=""/>
    <member type="way" ref="681530529" role=""/>
    <member type="way" ref="616977747" role="forward"/>
    <member type="way" ref="616977752" role="forward"/>
    <member type="way" ref="616977750" role=""/>
    <member type="way" ref="487082554" role=""/>
    <member type="way" ref="1067121869" role=""/>
    <member type="way" ref="1207320717" role=""/>
    <member type="way" ref="1067121870" role=""/>
    <member type="way" ref="1207320718" role=""/>
    <member type="way" ref="509350836" role=""/>
    <member type="way" ref="602757051" role=""/>
    <member type="way" ref="602757052" role=""/>
    <member type="way" ref="232917147" role=""/>
    <member type="way" ref="232917150" role=""/>
    <member type="way" ref="4253846" role=""/>
    <member type="way" ref="1067121867" role=""/>
    <member type="way" ref="1067121868" role=""/>
    <member type="way" ref="509350838" role=""/>
    <member type="way" ref="509350837" role=""/>
    <member type="way" ref="1323207301" role=""/>
    <member type="way" ref="207104730" role=""/>
    <member type="way" ref="148130836" role=""/>
    <member type="way" ref="147991512" role="forward"/>
    <member type="way" ref="677357550" role="forward"/>
    <member type="way" ref="27005810" role="forward"/>
    <member type="way" ref="705860175" role="forward"/>
    <member type="way" ref="27005811" role="forward"/>
    <member type="way" ref="66789464" role="forward"/>
    <member type="way" ref="77107639" role="forward"/>
    <member type="way" ref="207104731" role="forward"/>
    <member type="way" ref="230266775" role="forward"/>
    <member type="way" ref="148871599" role=""/>
    <member type="way" ref="18771036" role=""/>
    <member type="way" ref="615056689" role=""/>
    <member type="way" ref="18771038" role=""/>
    <member type="way" ref="532636971" role=""/>
    <member type="way" ref="1184550850" role=""/>
    <member type="way" ref="1184550849" role=""/>
    <member type="way" ref="226108165" role=""/>
    <member type="way" ref="38748215" role=""/>
    <member type="way" ref="114925568" role=""/>
    <member type="way" ref="581022359" role=""/>
    <member type="way" ref="758258391" role="forward"/>
    <member type="way" ref="758258393" role=""/>
    <member type="way" ref="616987800" role="forward"/>
    <member type="way" ref="4256272" role=""/>
    <member type="way" ref="1140683049" role="forward"/>
    <member type="way" ref="38748214" role="forward"/>
    <member type="way" ref="581022360" role="forward"/>
    <tag k="colour" v="#93d50a"/>
    <tag k="cycle_network" v="GB:London Cycleways"/>
    <tag k="name" v="Cycleway 27"/>
    <tag k="network" v="rcn"/>
    <tag k="operator" v="Transport for London"/>
    <tag k="ref" v="C27"/>
    <tag k="ref:colour" v="#93d50a"/>
    <tag k="ref:colour_bg" v="white"/>
    <tag k="ref:colour_tx" v="black"/>
    <tag k="route" v="bicycle"/>
    <tag k="tfl:programme" v="Cycleways"/>
    <tag k="type" v="route"/>
    <tag k="website" v="https://tfl.gov.uk/travel-information/improvements-and-projects/quietways"/>
  </relation>
  <relation id="13743924" version="34" timestamp="2024-11-04T02:55:53Z" changeset="158723946" uid="322039" user="MacLondon">
    <member type="relation" ref="9816827" role="main"/>
    <member type="relation" ref="13516904" role="diversion"/>
    <member type="relation" ref="14462217" role="diversion"/>
    <member type="relation" ref="14462424" role="diversion"/>
    <member type="relation" ref="10603615" role="main"/>
    <member type="relation" ref="12545856" role="main"/>
    <member type="relation" ref="12545859" role="main"/>
    <member type="relation" ref="16106758" role="main"/>
    <member type="relation" ref="15259171" role="main"/>
    <member type="relation" ref="15347065" role="connection"/>
    <member type="relation" ref="10089794" role="connection"/>
    <member type="relation" ref="10990398" role="connection"/>
    <member type="relation" ref="10749334" role="connection"/>
    <tag k="colour" v="#93d50a"/>
    <tag k="cycle_network" v="GB:London Cycleways"/>
    <tag k="from" v="East Acton"/>
    <tag k="name" v="Cycleway 27"/>
    <tag k="network" v="rcn"/>
    <tag k="ref" v="C27"/>
    <tag k="ref:colour" v="#93d50a"/>
    <tag k="ref:colour_bg" v="white"/>
    <tag k="ref:colour_tx" v="black"/>
    <tag k="route" v="bicycle"/>
    <tag k="to" v="Walthamstow"/>
    <tag k="type" v="superroute"/>
    <tag k="via" v="Wormwood Scrubs;North Kensington;Notting Hill;Paddington;Marylebone;Fitzrovia;Bloomsbury;Clerkenwell;Angel;Canonbury;De Beauvoir Town;London Fields;Clapton;Lea Bridge;Argall"/>
  </relation>

</osm>
